#dP2024  7 31  0  0  0.00000000      97 __u+U IGS20 FIT  IAC
## 2325 259200.00000000   900.00000000 60522 0.0000000000000
+  119   C06C07C08C09C10C11C12C13C14C16C19C20C21C22C23C24C25
+        C26C27C28C29C30C32C33C34C35C36C37C38C39C40C41C42C43
+        C44C45E02E03E04E05E06E07E08E09E10E11E12E13E14E15E18
+        E19E21E24E25E26E27E29E30E31E33E34E36G02G03G04G05G06
+        G07G08G09G10G11G12G13G14G15G16G17G18G19G20G21G22G23
+        G24G25G26G27G28G29G30G31G32J02J03J04R01R02R03R04R05
+        R07R08R09R11R12R14R15R16R17R18R19R20R21R22R24R25R26
++         7  7  7  7  7  7  6  7  7  7  6  6  5  5  6  6  6
++         5  6  6  6  5  6  6  5  6  6  6  6  6  6  6  6  6
++         6  6  4  4  4  4  4  4  4  4  4  4  4  4  4  4  4
++         4  4  4  4  4  4  4  4  4  4  4  4  3  3  3  4  3
++         3  3  3  3  3  3  4  3  4  3  3  4  3  3  3  3  4
++         4  3  3  3  3  3  3  3  3 11 11 11  7  6  6  6  7
++         7  6  7  7  7  6  6  7  6  6  7  7  7  7  6  8  7
%c M  cc GPS ccc cccc cccc cccc cccc ccccc ccccc ccccc ccccc
%c cc cc ccc ccc cccc cccc cccc cccc ccccc ccccc ccccc ccccc
%f  1.2500000  1.025000000  0.00000000000  0.000000000000000
%f  0.0000000  0.000000000  0.00000000000  0.000000000000000
%i    0    0    0    0      0      0      0      0         0
%i    0    0    0    0      0      0      0      0         0
/* INFORMATION & ANALYSIS CENTER (IAC)            FINAL DATA
/* S/V CLOCKS ARE ALIGNED TO GNSS TIME                      
/* G:C1WC2W R:C1PC2P E:C1XC5X C:C2IC6I J:C1CC2S             
/* PCV:IGS20_2317 OL/AL:FES2004  NONE     YN ORB:CoN CLK:CoN
*  2024 07 31 22 15  0.00000000
PC06  -2316.113050  34984.930776 -23123.070245    641.402500
PC07 -12717.335428  26947.249441  29880.004755   -500.855507
PC08 -16545.293680  37138.019641 -11634.039684   -374.923630
PC09   5646.212642  39147.747539 -13187.007810   -113.656153
PC10  -4343.274838  27882.652521  31624.132607   -103.862127
PC11  15853.014757  -5305.416131 -22281.430443    690.081656
PC12  22896.220764  11983.965279 -10510.227382   -265.397980
PC13 -11353.627582  37339.738642 -16173.716677    438.377436
PC14  24940.188681 -11598.123882   4912.962174    915.248312
PC16  -2752.138840  34106.042905 -24065.899489   -696.604671
PC19 -18854.826813  15562.320922 -13414.441271   -922.102163
PC20 -26914.999879   6788.680792   2677.474024   -749.565428
PC21  19398.972469   7046.368584 -18792.850028   -949.103671
PC22    575.938413  15982.623613 -22878.475487     78.213953
PC23   1003.796962 -27142.764710  -6383.806369   -807.092112
PC24  16977.729300  -4405.884571  21693.830022    867.741699
PC25  12222.929562 -22567.858358  10925.299735    466.421998
PC26  11591.403298  15846.573132  19828.716856   -327.799417
PC27 -21429.561059 -17776.750153   1865.077303    348.535815
PC28 -10744.202284 -22199.969879 -13045.745629    268.904226
PC29  -8964.622495  13432.825885  22752.619323    315.723888
PC30 -22221.819735  -3482.884607  16515.627858   -150.164597
PC32 -19315.769223  -7007.282792  18878.701911   -688.998197
PC33  18868.444064 -15681.953762  13312.619893   -963.881474
PC34  21571.979797   1892.101473 -17608.725355    489.270154
PC35  11124.088148  21791.652053  13380.008058    298.880729
PC36 -12574.179638  22519.360035 -10641.333570    149.903670
PC37 -11263.563293 -16040.505810 -19838.844841   -914.811409
PC38 -21050.473014  36602.980958  -1358.479075    170.565180
PC39  -7010.996031  29399.422538 -29223.215382     -9.371514
PC40 -18370.147122  20215.196339  32048.133126    -83.184099
PC41    438.888045 -16277.708719  22710.686939   -933.116613
PC42  26978.985489  -5708.849720  -4368.772147   -458.209876
PC43   9931.170481 -12814.327917 -22725.386082     80.771226
PC44  22075.477090  16964.272163  -1745.479263    549.707108
PC45  -1436.385345  27224.031555   6024.048390   -111.263972
PE02 -16572.029524  23170.503404   8062.607270    147.739846
PE03  -9677.702874  14519.990747 -23913.476033   -130.660316
PE04 -12853.827470 -18039.326077  19635.819345      2.845359
PE05 -25955.205775   2531.101103 -13995.036987   4771.016737
PE06 -21711.716777 -15714.467475  12549.490879    -10.701070
PE07  27035.261905  11208.448258  -4486.291996   -134.127772
PE08  11980.053074  18018.285475 -20208.813419   -311.840133
PE09 -26985.958485 -11235.016625   4592.936408   -535.992207
PE10 -13217.037754 -23960.523955  11261.149587   -644.887903
PE11 -16471.159735 -15155.566480  19357.163118   2193.574812
PE12  -8342.050138 -28302.826041   2412.947010  -1147.619839
PE13  16330.293884  15707.097790 -19047.895805    -23.445280
PE14  11219.641689 -16667.030246 -22577.777228    142.705572
PE15   8003.307972  28440.230979  -1817.873245   -118.160719
PE18   8568.278355  18852.403753  18099.238663    381.660520
PE19  11810.461571 -13420.357993  23598.459406    381.802391
PE21  24392.232488 -13428.925059  10053.750309   -608.539702
PE24 -18114.113252  -4867.603835 -22911.774897   -905.134784
PE25 -24409.624167  13101.612469 -10415.117242      7.506583
PE26  14950.923595  -6603.746386 -24677.707516    528.522716
PE27  18210.102746   4608.852797  22881.992627   -414.671175
PE29  25765.443777  -2860.122488  14278.080755    -19.584431
PE30   1311.897437  19752.726380  22004.018143   -564.638218
PE31  -1370.958055 -19691.223513 -22046.861571    -31.101712
PE33   5201.572898 -23969.001488 -16564.247952     14.241314
PE34  -4835.634298  24306.359905  16189.246764   -125.845806
PE36 -14970.048595   5944.971856  24831.024487   -262.773780
PG02 -16531.792803  -2130.755598  21219.496237   -388.055936
PG03 -21062.323078  10146.146065  12327.872829    481.705765
PG04 -24686.507591    274.089499  -9965.172853    415.124042
PG05  15262.270209   4687.251221 -21423.078464   -181.660906
PG06   4578.857834  25828.678524   3846.231337    127.185687
PG07  -8601.906985  16634.382363 -18127.082331    -59.420603
PG08 -25991.177908  -6374.410292  -1473.450014    297.626469
PG09 -16976.333277   9423.271582 -18234.728668    295.665255
PG10   6540.038177 -21053.947787  14774.513626    -81.099839
PG11  12332.695776  21323.386269  -9991.469138   -714.394458
PG12  21426.258916  -6339.198029  14043.395191   -526.774829
PG13  21315.317477  14171.771171  -7756.980142    668.068376
PG14 -10140.173478  21706.211760  11265.911384    461.900478
PG15  26390.432809   3531.528860  -1836.966227    187.425802
PG16 -12417.229592  -9415.265749 -21874.720811   -221.125186
PG17  -2198.447640  15206.976326  22075.819130    665.510019
PG18   8181.264061 -17239.852422 -18365.381218   -642.106348
PG19   8120.285095  16739.208328  18949.201099    518.309559
PG20   8380.321667  14116.207086 -20841.810263    372.162848
PG21 -17580.598811  -8740.667429  18763.323622    105.584175
PG22  -3725.423228  19849.849158  17814.634552    -46.140703
PG23  15819.963133 -20929.603861   3341.474825    286.841972
PG24  17278.975473   4545.863940  19341.982686   -485.116318
PG25  20047.331752 -16267.406093   5289.727080    498.988109
PG26  -2539.070310 -18862.185236 -18532.979910    109.446051
PG27 -20491.600079 -13027.355315 -11536.177625    -32.294889
PG28  -3953.854045 -25542.059304   6105.385780   -354.341002
PG29  20307.778120  -5248.493205 -16415.351066   -586.619859
PG30  -1156.580355  24054.578296 -10746.285917   -348.053248
PG31 -10629.336034 -23462.156799  -5797.587896   -226.304223
PG32   -841.586475 -15667.142076  21666.782392   -608.904285
PJ02 -30817.240285  28672.936994   7717.186739     -0.672260
PJ03 -25650.317680  24427.892701  28025.083973     -1.496833
PJ04 -30800.772368  23544.957576 -11298.281269     50.856928
PR01  19591.359240  -9558.460881  13255.515480     93.103071
PR02   3672.166828 -11084.424612  22711.460408    -23.918811
PR03 -14984.300132  -7168.981171  19423.502092    104.788407
PR04 -24867.380701    398.534876   5726.789528    247.794109
PR05 -21639.719680   7748.656125 -11079.174204    135.374562
PR07  15499.498481   6909.711750 -18986.903188     87.856606
PR08  24899.409847   -764.834986  -5347.683025     -6.232232
PR09  -5613.913674  24032.457782   6298.111419    200.841929
PR11  11696.669023   -229.031443  22684.008229     16.391721
PR12  13402.958508 -18437.577729  11470.389795     43.105291
PR14  -4258.155522 -15471.499197 -19817.735767     26.754934
PR15 -12318.044722   1869.158515 -22230.950930     77.320406
PR16 -13268.283333  18389.821516 -11625.705592     27.872931
PR17 -15785.809221 -19978.941970    993.807234    109.553576
PR18 -16812.314874 -10376.467653  16171.306425    154.774406
PR19 -10595.974095   2786.361409  23030.727336   -285.914877
PR20   4311.836314  19067.347542  16373.935255   -117.013573
PR21  15456.476409  20311.009280   -475.023742   -122.212661
PR22  16538.374493   9609.052967 -16849.431920     78.364440
PR24  -5320.178832 -19281.376764 -15800.266297    -65.970885
PR25  15150.529151  20498.122596  -1309.624641    -98.978790
PR26  24588.548469   -192.364698  -6810.591942      7.260334
EOF
